[{"OBJECT_NAME":"STARLINK-35728","OBJECT_ID":"2025-265AE","EPOCH":"2026-03-09T22:28:28.725312","MEAN_MOTION":15.27567523,"ECCENTRICITY":8.01e-5,"INCLINATION":42.9973,"RA_OF_ASC_NODE":276.3177,"ARG_OF_PERICENTER":237.6519,"MEAN_ANOMALY":122.4255,"EPHEMERIS_TYPE":0,"CLASSIFICATION_TYPE":"U","NORAD_CAT_ID":66544,"ELEMENT_SET_NO":999,"REV_AT_EPOCH":1715,"BSTAR":0.0010536936,"MEAN_MOTION_DOT":0.00028836,"MEAN_MOTION_DDOT":0},{"OBJECT_NAME":"CZ-6A DEB","OBJECT_ID":"2022-151ADD","EPOCH":"2026-03-09T18:20:47.462208","MEAN_MOTION":15.20298953,"ECCENTRICITY":0.00285544,"INCLINATION":98.6309,"RA_OF_ASC_NODE":152.6578,"ARG_OF_PERICENTER":173.2603,"MEAN_ANOMALY":186.9019,"EPHEMERIS_TYPE":0,"CLASSIFICATION_TYPE":"U","NORAD_CAT_ID":56285,"ELEMENT_SET_NO":999,"REV_AT_EPOCH":17182,"BSTAR":0.0066325049,"MEAN_MOTION_DOT":0.00148374,"MEAN_MOTION_DDOT":0}]
